{
"type": "FeatureCollection",
"crs": { "type": "name", "properties": { "name": "urn:ogc:def:crs:OGC:1.3:CRS84" } },
"features": [
{ "type": "Feature", "properties": { "shapeName": "Saint Kitts and Nevis", "shapeISO": "KNA", "shapeID": "85017041B19065856442398", "shapeGroup": "KNA", "shapeType": "ADM0" }, "geometry": { "type": "MultiPolygon", "coordinates": [ [ [ [ -62.578287746782053, 17.206566812608344 ], [ -62.579162306894887, 17.207199704203049 ], [ -62.579824852734703, 17.207604753456678 ], [ -62.580831921655829, 17.207706016219731 ], [ -62.581891993920351, 17.207376912914242 ], [ -62.583031572548975, 17.206997178676886 ], [ -62.584250655743119, 17.206744022218913 ], [ -62.585072212512557, 17.206364286182918 ], [ -62.58639730329287, 17.206263023419865 ], [ -62.587510378900845, 17.206516180777157 ], [ -62.588305433548896, 17.206946547745019 ], [ -62.589153491540344, 17.207452859761702 ], [ -62.590081054996631, 17.207655384388545 ], [ -62.59206869161676, 17.207199704203049 ], [ -62.59294325172965, 17.206921231829426 ], [ -62.594745375298771, 17.206769338134507 ], [ -62.596070466079084, 17.206288339335458 ], [ -62.598561636710144, 17.205478233633642 ], [ -62.601158814027997, 17.204794703912512 ], [ -62.602616414515865, 17.204820019828105 ], [ -62.604445039307052, 17.205022547152851 ], [ -62.606008646481826, 17.205149126730873 ], [ -62.607042217524281, 17.205630128227881 ], [ -62.607810770050946, 17.205731391890254 ], [ -62.608658828042451, 17.205452917718048 ], [ -62.609374377225663, 17.204820019828105 ], [ -62.610540457076411, 17.203908643269301 ], [ -62.611733039048488, 17.203427637275695 ], [ -62.612196821226291, 17.203054223473657 ], [ -62.611285820584101, 17.202421317489836 ], [ -62.611037366681103, 17.201353284426602 ], [ -62.611492866102822, 17.19961277161218 ], [ -62.612776548498857, 17.19850516388226 ], [ -62.61335627487216, 17.197634896233524 ], [ -62.614060229995573, 17.196092139840459 ], [ -62.614598547984542, 17.195103185963319 ], [ -62.616172093567229, 17.194351577563282 ], [ -62.617455775063945, 17.193125262920603 ], [ -62.61844959337401, 17.191938498662807 ], [ -62.618905092795728, 17.191265995529307 ], [ -62.618325365523162, 17.190356134328169 ], [ -62.618780865844258, 17.18821992251145 ], [ -62.619319183833227, 17.187230926366226 ], [ -62.619526229351948, 17.185688082738864 ], [ -62.619940320389446, 17.18473863428062 ], [ -62.621513865972076, 17.182997964984168 ], [ -62.623181823282493, 17.180818941840755 ], [ -62.624294899789732, 17.179426378524624 ], [ -62.625540485105262, 17.176641220416059 ], [ -62.626839073764188, 17.173501538765038 ], [ -62.628058157857652, 17.170159237159112 ], [ -62.628773707040921, 17.166183847007005 ], [ -62.629330245294568, 17.162816091889169 ], [ -62.629436251981417, 17.159650853304299 ], [ -62.629038724657391, 17.155346042385986 ], [ -62.628561691868526, 17.151522274333558 ], [ -62.628296674252056, 17.149471080825776 ], [ -62.62816416544382, 17.147470512853943 ], [ -62.628535190646517, 17.146736121075151 ], [ -62.629727771719274, 17.144558254459923 ], [ -62.629939786891612, 17.143114770630234 ], [ -62.629992790235065, 17.140303742623701 ], [ -62.630019292356394, 17.138505675896283 ], [ -62.630098797821233, 17.136429013588156 ], [ -62.63039031755909, 17.134833513755723 ], [ -62.630734841539663, 17.133896466948443 ], [ -62.631609400753177, 17.133389953483629 ], [ -62.632960993654876, 17.133237999534117 ], [ -62.633438026443741, 17.132554203613665 ], [ -62.632775480603925, 17.130806713858817 ], [ -62.632510462987455, 17.129869647266446 ], [ -62.632695975139086, 17.129033881208727 ], [ -62.632483960866068, 17.128426049222867 ], [ -62.631529895288395, 17.127818215438367 ], [ -62.630496325145259, 17.127185052248421 ], [ -62.629436251981417, 17.126399927914406 ], [ -62.628588193989913, 17.124880321869398 ], [ -62.628031655736265, 17.123791263556029 ], [ -62.62789914692803, 17.122550236004656 ], [ -62.62760762719023, 17.121435836594628 ], [ -62.627183597744818, 17.120296103282612 ], [ -62.626812572542121, 17.119308328416651 ], [ -62.625858506964505, 17.118472514694872 ], [ -62.625142957781236, 17.117155468350234 ], [ -62.624533416184192, 17.115787756000202 ], [ -62.62347334391967, 17.114521345983405 ], [ -62.622731292615015, 17.113178942354352 ], [ -62.622492776220611, 17.111659229290069 ], [ -62.622545779564064, 17.11026614706509 ], [ -62.622678289271619, 17.109303648544596 ], [ -62.622095248896585, 17.108847726441468 ], [ -62.620505140499802, 17.108163840588816 ], [ -62.619895598003382, 17.107454623532078 ], [ -62.619630580386911, 17.106517439128538 ], [ -62.618491001758287, 17.106036180425463 ], [ -62.616980398826286, 17.10514964853752 ], [ -62.616768384553268, 17.104364430673968 ], [ -62.616132340834838, 17.103908496879683 ], [ -62.6153107840654, 17.103376571271781 ], [ -62.61496626098409, 17.102667336228649 ], [ -62.61406519874987, 17.102515357098127 ], [ -62.613561664738995, 17.102008758197655 ], [ -62.613323148344591, 17.101324847163994 ], [ -62.612634100383389, 17.100742254651379 ], [ -62.612289577302136, 17.1002103209496 ], [ -62.611415017189245, 17.099729046058656 ], [ -62.611096995330058, 17.098589179646979 ], [ -62.61091148317837, 17.097803933904459 ], [ -62.609957417600697, 17.09706934697283 ], [ -62.608976849901637, 17.096410748257483 ], [ -62.606565184735473, 17.095498840199355 ], [ -62.605505112470951, 17.095270862060659 ], [ -62.604524544771891, 17.095397516282389 ], [ -62.603305461577747, 17.094713581866358 ], [ -62.602006872918821, 17.094460271624314 ], [ -62.599674712318063, 17.094232292586298 ], [ -62.598058101799893, 17.094384278911377 ], [ -62.596892021949202, 17.09532152356951 ], [ -62.596017461836368, 17.095929464373341 ], [ -62.593897316408004, 17.096081448899781 ], [ -62.591962684030591, 17.095777478947525 ], [ -62.590346073512421, 17.096714717310419 ], [ -62.589206495783117, 17.098183892072996 ], [ -62.587483877678778, 17.099577064230175 ], [ -62.586476808757652, 17.099931688496667 ], [ -62.585469738937263, 17.099855697582427 ], [ -62.58478069187538, 17.100260981559074 ], [ -62.584118146934884, 17.101046216509758 ], [ -62.582925564962807, 17.10142616748368 ], [ -62.581467965374259, 17.101375507773525 ], [ -62.579957361542938, 17.101400837178915 ], [ -62.578605768641296, 17.102717995938804 ], [ -62.5779432237008, 17.103199262735814 ], [ -62.575001522402317, 17.103427230981993 ], [ -62.572987383660802, 17.103503220097593 ], [ -62.570204693291942, 17.104339101268579 ], [ -62.568323064257982, 17.105048330016473 ], [ -62.565725886040752, 17.10656809793943 ], [ -62.562678177156101, 17.107251989188001 ], [ -62.560717043556679, 17.107125343060204 ], [ -62.558464388420759, 17.106441450912257 ], [ -62.556582759386799, 17.106542768533984 ], [ -62.554462614857755, 17.1068213910944 ], [ -62.553879574482721, 17.107302647998836 ], [ -62.55271349463203, 17.109101016898478 ], [ -62.55083186559807, 17.110038187812165 ], [ -62.549771793333548, 17.111203312582859 ], [ -62.548764724412479, 17.112520402094958 ], [ -62.547969669764427, 17.114065436470753 ], [ -62.547466134854176, 17.115179879947561 ], [ -62.54733362604594, 17.117104812237358 ], [ -62.546512069276559, 17.118548498414498 ], [ -62.546088040730467, 17.120498723237517 ], [ -62.545478499133367, 17.121993037648622 ], [ -62.545372491547198, 17.12351266617668 ], [ -62.545133975152794, 17.125513493153221 ], [ -62.544736447828768, 17.126754500919503 ], [ -62.543808884372481, 17.127337011593852 ], [ -62.542987328502363, 17.12779288873088 ], [ -62.542589801178337, 17.128679312700172 ], [ -62.542616302400404, 17.129692363911488 ], [ -62.542563299056951, 17.130401496431944 ], [ -62.541927255338521, 17.131009322122566 ], [ -62.541635735600664, 17.132047686551516 ], [ -62.541635735600664, 17.133541908332461 ], [ -62.541211706155252, 17.13511209404794 ], [ -62.541370717084874, 17.136074459468773 ], [ -62.54203326292469, 17.13680889261633 ], [ -62.542298280541161, 17.137720599226327 ], [ -62.541821248651672, 17.138455026078645 ], [ -62.54113220069047, 17.138961525154286 ], [ -62.540708172144377, 17.139645297692368 ], [ -62.540814178831226, 17.140632964639678 ], [ -62.54076117548783, 17.141645950200484 ], [ -62.540204637234183, 17.14238036176431 ], [ -62.539595095637139, 17.143595933105871 ], [ -62.539674601101922, 17.145317978342064 ], [ -62.5401251317694, 17.146558853908004 ], [ -62.540973189760848, 17.147622455112241 ], [ -62.541715241065504, 17.148989933638575 ], [ -62.542165771732925, 17.150762575632427 ], [ -62.542483793592169, 17.152864400072076 ], [ -62.54266930664312, 17.154561036762459 ], [ -62.542351284783933, 17.156510883870226 ], [ -62.542086266268143, 17.158258131707441 ], [ -62.541794746530286, 17.159676175515131 ], [ -62.541874251995068, 17.160663736342428 ], [ -62.542324782662547, 17.161347427941507 ], [ -62.543146339431985, 17.16225901404232 ], [ -62.543702876786313, 17.16355041981609 ], [ -62.54425941503996, 17.165576136429593 ], [ -62.54455093567708, 17.167956324424893 ], [ -62.544603939020533, 17.170032634198776 ], [ -62.544736447828768, 17.171653152271233 ], [ -62.544577436899147, 17.172716609583915 ], [ -62.544338920504742, 17.173552178690159 ], [ -62.544206411696507, 17.174134543674313 ], [ -62.544206411696507, 17.175071386335446 ], [ -62.544815953293551, 17.175425865811121 ], [ -62.54553150247682, 17.17583098521186 ], [ -62.545690513406441, 17.176438662514329 ], [ -62.545425494890651, 17.177096977043902 ], [ -62.545292986082416, 17.178337640369875 ], [ -62.545292986082416, 17.179704892267011 ], [ -62.545478499133367, 17.18056574851056 ], [ -62.546326557124871, 17.181325325803186 ], [ -62.546962600843301, 17.181857027479907 ], [ -62.547704651248637, 17.182869788210212 ], [ -62.54955977816121, 17.184692743675214 ], [ -62.551017378649078, 17.18580676357135 ], [ -62.552156956378383, 17.187300551878991 ], [ -62.552501480359012, 17.188414555587315 ], [ -62.552952011026434, 17.18988300549637 ], [ -62.553773566896552, 17.190414682891344 ], [ -62.554860142181781, 17.190591907790349 ], [ -62.555390178314042, 17.191553985428129 ], [ -62.555204665263034, 17.192592010812689 ], [ -62.555257668606487, 17.193579395372865 ], [ -62.556264738426876, 17.194490823193007 ], [ -62.557404316156237, 17.19481994898149 ], [ -62.558782410279946, 17.195073121627331 ], [ -62.559815981322458, 17.195604783733813 ], [ -62.561088068759318, 17.195706052792161 ], [ -62.5631287087229, 17.195452880146377 ], [ -62.564056272179187, 17.195376928802261 ], [ -62.564983835635473, 17.1955794669189 ], [ -62.565725886040752, 17.195933906824393 ], [ -62.566759457083265, 17.195756687321307 ], [ -62.567766526004334, 17.196263029914974 ], [ -62.568402569722764, 17.197452931008002 ], [ -62.568720591582007, 17.198161804523693 ], [ -62.570416707564959, 17.198971942601133 ], [ -62.571052751283389, 17.20018714252268 ], [ -62.571291267677793, 17.20092132206139 ], [ -62.572165827790684, 17.202212458038559 ], [ -62.573013885782188, 17.202769416275601 ], [ -62.574126962289427, 17.204161804223929 ], [ -62.576883150536901, 17.205908602400143 ], [ -62.578287746782053, 17.206566812608344 ] ] ], [ [ [ -62.610078265799302, 17.226359603013293 ], [ -62.609823848491772, 17.22694281336021 ], [ -62.610078265799302, 17.227331619958363 ], [ -62.610756712552188, 17.227218218146277 ], [ -62.610977207432143, 17.226813211160788 ], [ -62.610705828910852, 17.226294801463951 ], [ -62.610078265799302, 17.226359603013293 ] ] ], [ [ [ -62.809239375996356, 17.416972968327855 ], [ -62.811115725110596, 17.417158173810719 ], [ -62.812733268225713, 17.416911233466692 ], [ -62.814480213890704, 17.416602556462863 ], [ -62.815709545758864, 17.41684949770621 ], [ -62.817715298322298, 17.417034704088394 ], [ -62.81886957726914, 17.417089031233843 ], [ -62.820691576754825, 17.416733435699541 ], [ -62.822223713053859, 17.416022243731618 ], [ -62.823714440069296, 17.414955449934098 ], [ -62.824335576625515, 17.413967672370234 ], [ -62.825287985651983, 17.413493537197041 ], [ -62.828352258250106, 17.412821844352663 ], [ -62.82988439454914, 17.412110637096248 ], [ -62.83216189435592, 17.411873566811721 ], [ -62.834190939360326, 17.41222917133922 ], [ -62.835764484943013, 17.412545264152641 ], [ -62.837627893712295, 17.412426729010406 ], [ -62.838580302738762, 17.412031613668091 ], [ -62.839822574951825, 17.411122844243891 ], [ -62.841230484299388, 17.41037211807884 ], [ -62.842721211314824, 17.410451141506996 ], [ -62.843756438908486, 17.41021407032315 ], [ -62.844211938330261, 17.409028705410492 ], [ -62.845081529688798, 17.407645771135492 ], [ -62.846323801901917, 17.407053081934237 ], [ -62.847441847163452, 17.406776492741017 ], [ -62.848766937943765, 17.406381364808169 ], [ -62.849760756253886, 17.405354027866167 ], [ -62.850092028724134, 17.403733984635721 ], [ -62.851334301836516, 17.402627606279054 ], [ -62.851914029109139, 17.401797817115607 ], [ -62.852079665344263, 17.40065191265569 ], [ -62.852700801900426, 17.400138228896196 ], [ -62.853901664829948, 17.399189885704686 ], [ -62.854854073856359, 17.398162508293183 ], [ -62.85667607424142, 17.397569788515 ], [ -62.857876937170886, 17.397372214656059 ], [ -62.858746528529423, 17.39658191652228 ], [ -62.859202027951198, 17.395040826572938 ], [ -62.859202027951198, 17.393499724033063 ], [ -62.859657528272294, 17.393104567321984 ], [ -62.861189664571327, 17.391998124214126 ], [ -62.861603755608769, 17.390733609068832 ], [ -62.86189361879542, 17.389231986766845 ], [ -62.862638982303167, 17.388362620238809 ], [ -62.863467164378108, 17.387414216792706 ], [ -62.863674209896828, 17.385398841483379 ], [ -62.86326011885933, 17.383976210233982 ], [ -62.862928846389082, 17.382830194258133 ], [ -62.86326011885933, 17.38168417018835 ], [ -62.863425755094454, 17.379234026629092 ], [ -62.863508573661704, 17.377653272080863 ], [ -62.86326011885933, 17.376151541860224 ], [ -62.863798436848356, 17.374254601868415 ], [ -62.864212527885797, 17.372515723122149 ], [ -62.864046891650673, 17.371685798161081 ], [ -62.864336754837325, 17.370658266965506 ], [ -62.864212527885797, 17.369749291596577 ], [ -62.862887437105485, 17.368721749609108 ], [ -62.86044430106358, 17.367536115799169 ], [ -62.858001165021733, 17.366271432480687 ], [ -62.854895483140012, 17.36461152140464 ], [ -62.853528983076046, 17.363070162558017 ], [ -62.852783619568356, 17.361568312727513 ], [ -62.852245301579387, 17.360461678963361 ], [ -62.850961620082671, 17.359434084815234 ], [ -62.849967801772607, 17.358129821434147 ], [ -62.848684120275891, 17.355718886517423 ], [ -62.847524665730703, 17.35433554934616 ], [ -62.847069165409607, 17.352517433133073 ], [ -62.847193393260454, 17.351529318323458 ], [ -62.847690301965827, 17.349987848860167 ], [ -62.847400438779175, 17.348723044133237 ], [ -62.846158165666793, 17.347893011253518 ], [ -62.842969666117142, 17.346153882495742 ], [ -62.841396120534512, 17.345007629998179 ], [ -62.840609347743168, 17.344296158341081 ], [ -62.839491302481576, 17.342319836091633 ], [ -62.838745938973886, 17.341054978304669 ], [ -62.837130985006922, 17.339908693431482 ], [ -62.834025303125202, 17.337971851419866 ], [ -62.83145794013177, 17.335283954091267 ], [ -62.830298485586582, 17.333900463135933 ], [ -62.82843507591798, 17.332477431688176 ], [ -62.826116167726923, 17.331252035253272 ], [ -62.82313471279673, 17.32994757222275 ], [ -62.821436940262515, 17.329315101510758 ], [ -62.818207031429324, 17.32812921409203 ], [ -62.81439739532351, 17.326468957676298 ], [ -62.809055622918606, 17.324057607272835 ], [ -62.802140305830392, 17.320460287612207 ], [ -62.799241669467449, 17.319076684241622 ], [ -62.797212624462986, 17.31773260247769 ], [ -62.795514851928829, 17.315518798953462 ], [ -62.794603851286695, 17.313660765432019 ], [ -62.793899897062545, 17.311723646429186 ], [ -62.793982715629795, 17.310853912078414 ], [ -62.793568624592297, 17.309786506741943 ], [ -62.791788033490889, 17.309114432585034 ], [ -62.790752806796547, 17.307493539495283 ], [ -62.789924624721607, 17.305161009273206 ], [ -62.78905503426239, 17.303302870531127 ], [ -62.788061215952325, 17.302986589759371 ], [ -62.786777534455609, 17.303223800338174 ], [ -62.785245398156576, 17.30314473014522 ], [ -62.783423397771571, 17.30235402641722 ], [ -62.781270125815638, 17.301405177806771 ], [ -62.779365307762703, 17.30093075125319 ], [ -62.776756534586355, 17.299507465297324 ], [ -62.77576271717561, 17.298558601398383 ], [ -62.775472853089639, 17.297728341889524 ], [ -62.775348626138168, 17.296542250324649 ], [ -62.774064944641452, 17.296344567647736 ], [ -62.77203589873767, 17.296305030752592 ], [ -62.770089672300514, 17.295593371137215 ], [ -62.768681762952951, 17.294525876767864 ], [ -62.765990172108729, 17.294328192292312 ], [ -62.763795490869143, 17.294763098138503 ], [ -62.761600808730293, 17.294130506917384 ], [ -62.760606990420229, 17.293102541349242 ], [ -62.757749763340883, 17.293102541349242 ], [ -62.754726900026355, 17.293142078244387 ], [ -62.75062740073389, 17.293221152933938 ], [ -62.745202810661169, 17.292667631006395 ], [ -62.744084764500258, 17.291995494796311 ], [ -62.743090947089513, 17.290572139592598 ], [ -62.742097128779449, 17.28997907177677 ], [ -62.740440765528888, 17.289741844110893 ], [ -62.739653992737544, 17.290137222954513 ], [ -62.738080447154857, 17.290809366359213 ], [ -62.73712803812839, 17.290769828564805 ], [ -62.736424083904296, 17.290374450620448 ], [ -62.735098993123984, 17.289425539956767 ], [ -62.732821493317203, 17.289623229828237 ], [ -62.732034720525917, 17.290572139592598 ], [ -62.732283175328234, 17.291521043961041 ], [ -62.731744856439946, 17.292351331348925 ], [ -62.729218902730111, 17.293497912998362 ], [ -62.726941402923387, 17.293932821542512 ], [ -62.720026084935853, 17.294486339872719 ], [ -62.717748585129073, 17.294446802977632 ], [ -62.71269667681014, 17.294090970022296 ], [ -62.710377767719763, 17.293339764518578 ], [ -62.709176903890977, 17.292469943832884 ], [ -62.709094086223047, 17.291679194239464 ], [ -62.709383949409698, 17.290453526209319 ], [ -62.709508176361226, 17.28958369203383 ], [ -62.708679995185605, 17.288555700385302 ], [ -62.707272085838042, 17.287369549465211 ], [ -62.706195449860104, 17.285906619594869 ], [ -62.704911768363388, 17.284404139339586 ], [ -62.702758495508135, 17.282783028613949 ], [ -62.700812268171603, 17.282348093090093 ], [ -62.699238722588916, 17.28238763268314 ], [ -62.698203495894575, 17.282783028613949 ], [ -62.697416723103231, 17.282743489020845 ], [ -62.696588541028291, 17.28238763268314 ], [ -62.69576035985267, 17.282269013903942 ], [ -62.694849360109856, 17.281952697159284 ], [ -62.6933586321951, 17.281636379515362 ], [ -62.691867905179663, 17.281636379515362 ], [ -62.688927860432386, 17.281003743328142 ], [ -62.687975451405919, 17.280371104442963 ], [ -62.686857406144327, 17.279580302688885 ], [ -62.685408087513167, 17.277761446333727 ], [ -62.684455678486756, 17.276970633787755 ], [ -62.682757905952542, 17.275705326339789 ], [ -62.68163986069095, 17.275033128975792 ], [ -62.680646042380886, 17.274993587584049 ], [ -62.679362360884227, 17.275072669468159 ], [ -62.677623179066416, 17.274519092682056 ], [ -62.674848770554263, 17.273570101079372 ], [ -62.672571270747483, 17.272542020397964 ], [ -62.670376588608633, 17.271039430425446 ], [ -62.668099088801853, 17.269655455634847 ], [ -62.666070043797447, 17.267994672216389 ], [ -62.66449649821476, 17.266254787128787 ], [ -62.663709725423473, 17.265463925120116 ], [ -62.663171407434447, 17.264673059514109 ], [ -62.662384634643161, 17.263328581149153 ], [ -62.66147363490029, 17.262260898821467 ], [ -62.660438408205948, 17.261430475636018 ], [ -62.659610226131008, 17.26052096067383 ], [ -62.659320362944356, 17.259136906742924 ], [ -62.659237544377106, 17.257752842020068 ], [ -62.659527407563758, 17.256882854060507 ], [ -62.659320362944356, 17.255696498994268 ], [ -62.658740635671734, 17.254905592019497 ], [ -62.658616407820944, 17.254114680548128 ], [ -62.658699226388137, 17.25312603783641 ], [ -62.658036680548321, 17.252572395399795 ], [ -62.6572084993727, 17.250990549973949 ], [ -62.657167090089104, 17.250041436962817 ], [ -62.6578296350296, 17.24889458461746 ], [ -62.65865781710454, 17.247747725976808 ], [ -62.659610226131008, 17.246640406929259 ], [ -62.660065726452046, 17.245572628374134 ], [ -62.659734453082478, 17.24470258285794 ], [ -62.658947680291192, 17.244109366654016 ], [ -62.658243726067042, 17.243081122296019 ], [ -62.657539771842949, 17.24126190621206 ], [ -62.657374135607824, 17.239679963659455 ], [ -62.657746817361669, 17.238888988336214 ], [ -62.658409362302166, 17.238177106588239 ], [ -62.658492180869416, 17.237425673556061 ], [ -62.658699226388137, 17.235685500685349 ], [ -62.659154725809913, 17.23509225570308 ], [ -62.660604044441072, 17.234024411497444 ], [ -62.661763498986261, 17.23299611048219 ], [ -62.663378452953225, 17.232126004711404 ], [ -62.66449649821476, 17.231611849707122 ], [ -62.664910589252258, 17.230899940080235 ], [ -62.664910589252258, 17.22943656234753 ], [ -62.664413680546886, 17.227775416502311 ], [ -62.663502680804015, 17.22753810879675 ], [ -62.662467453210354, 17.227142595954092 ], [ -62.661225180997292, 17.226549323992174 ], [ -62.660355589638698, 17.22583739458014 ], [ -62.660189953403574, 17.225006807718046 ], [ -62.660189953403574, 17.223899351973557 ], [ -62.659734453082478, 17.22287099520031 ], [ -62.659154725809913, 17.221605316332329 ], [ -62.658699226388137, 17.220181417938136 ], [ -62.658864862623261, 17.219113487397578 ], [ -62.659693044698201, 17.2174522489222 ], [ -62.659858680933326, 17.216463409259006 ], [ -62.659444589895884, 17.215593226146495 ], [ -62.658533590153013, 17.215039471294631 ], [ -62.658285135350695, 17.214248389851377 ], [ -62.657746817361669, 17.213655076520638 ], [ -62.656628772100134, 17.213575967656823 ], [ -62.655717771457944, 17.213219978219456 ], [ -62.654061408207383, 17.213259533100995 ], [ -62.652694908143474, 17.214011064159308 ], [ -62.651618272165479, 17.214960363330135 ], [ -62.651535454497605, 17.216384301294511 ], [ -62.651949544635727, 17.217214927726786 ], [ -62.652322226389572, 17.218243315976281 ], [ -62.651990953919324, 17.219548570410268 ], [ -62.651990953919324, 17.220853815850944 ], [ -62.652239408721698, 17.22219860448206 ], [ -62.652156590154448, 17.224057560707934 ], [ -62.651618272165479, 17.225244119020942 ], [ -62.650251772101569, 17.226391117056437 ], [ -62.647518772873013, 17.226984389917732 ], [ -62.645613954820135, 17.226747081312794 ], [ -62.64515845449904, 17.22591649804798 ], [ -62.644785772745195, 17.224729944231569 ], [ -62.644081818521045, 17.224334425093673 ], [ -62.643336455013355, 17.223741144138558 ], [ -62.642839545408663, 17.22287099520031 ], [ -62.642218409751763, 17.222317261932119 ], [ -62.641266000725295, 17.222317261932119 ], [ -62.640272182415231, 17.22295009956747 ], [ -62.640313591698884, 17.223701591954978 ], [ -62.640313591698884, 17.22457173639657 ], [ -62.639940909944983, 17.225718739828039 ], [ -62.638947091634918, 17.226865735165575 ], [ -62.638408773645949, 17.227379903659653 ], [ -62.637125091249914, 17.227419454943913 ], [ -62.636793818779665, 17.228170929344969 ], [ -62.635924228320448, 17.22884329758017 ], [ -62.634267864170567, 17.229594766585251 ], [ -62.632777137155131, 17.229713418639392 ], [ -62.631617682609942, 17.22939701196259 ], [ -62.631286410139694, 17.228685093342449 ], [ -62.630955137669446, 17.227379903659653 ], [ -62.630706682867071, 17.226628426560694 ], [ -62.62905031961651, 17.226351565772177 ], [ -62.627021274612105, 17.226628426560694 ], [ -62.625986047018387, 17.22757766008101 ], [ -62.625903228451193, 17.229317909394069 ], [ -62.626400138055885, 17.230385782377994 ], [ -62.627021274612105, 17.231058142519316 ], [ -62.627683819552601, 17.231334996113219 ], [ -62.628429183060291, 17.23145364816736 ], [ -62.628801864814193, 17.232521507661488 ], [ -62.628677637862666, 17.233866210857002 ], [ -62.628263546825167, 17.234894507375657 ], [ -62.627766638119795, 17.235566851329168 ], [ -62.625654774548138, 17.236516039883384 ], [ -62.623335865457761, 17.237504771627982 ], [ -62.623046001371847, 17.23821665607386 ], [ -62.622424865714947, 17.239007634994437 ], [ -62.62155527435641, 17.240114999008028 ], [ -62.621638092923604, 17.241143260453157 ], [ -62.622093592345379, 17.242052871642784 ], [ -62.622631911233668, 17.242606545555702 ], [ -62.622797547468792, 17.244030271280053 ], [ -62.623253046890568, 17.245098058828376 ], [ -62.624122638249105, 17.246679953716921 ], [ -62.624992228708322, 17.247352255402291 ], [ -62.625696183831792, 17.247866366339792 ], [ -62.625861820066916, 17.249013224980388 ], [ -62.625903228451193, 17.250120529638764 ], [ -62.62677281980973, 17.250634633381651 ], [ -62.62739395636595, 17.250951004085607 ], [ -62.629423001370355, 17.251465105130535 ], [ -62.630665273583475, 17.25174192814751 ], [ -62.631990364363787, 17.252414210947109 ], [ -62.632984182673852, 17.253244675501435 ], [ -62.633978000983916, 17.254035589670764 ], [ -62.63476477377526, 17.254786955253849 ], [ -62.635882819036851, 17.255221954629576 ], [ -62.63642113702582, 17.254391499967824 ], [ -62.636835228063262, 17.253521495820451 ], [ -62.637456364619482, 17.252335119170482 ], [ -62.637953273324854, 17.250951004085607 ], [ -62.638905682351322, 17.250001890175156 ], [ -62.640023727612913, 17.249645971784219 ], [ -62.641804318714321, 17.249804158035488 ], [ -62.642798136125066, 17.250792818733657 ], [ -62.642922363975856, 17.252058297052827 ], [ -62.64296377325951, 17.253521495820451 ], [ -62.643419272681228, 17.254470590845131 ], [ -62.644288864039822, 17.255973315716005 ], [ -62.645075636831109, 17.257199213972569 ], [ -62.646235090476978, 17.257238758961591 ], [ -62.647642999824541, 17.257594662963356 ], [ -62.648305545664357, 17.258306469168247 ], [ -62.648636818134605, 17.259848706652519 ], [ -62.649340772358698, 17.260916402470059 ], [ -62.649961908914918, 17.261707284263821 ], [ -62.650997135609259, 17.262616793830034 ], [ -62.652115180870851, 17.262498162460304 ], [ -62.653937181255856, 17.262221355631084 ], [ -62.654972407950254, 17.262419074280899 ], [ -62.655924816976665, 17.263170405689721 ], [ -62.656256090346233, 17.264317169002197 ], [ -62.656421726581357, 17.265661641071915 ], [ -62.656918635286729, 17.266373416699878 ], [ -62.657788226645323, 17.267243360592659 ], [ -62.658285135350695, 17.26854826788832 ], [ -62.659196135093509, 17.26945774417959 ], [ -62.660976726194917, 17.27016950451906 ], [ -62.662426043926757, 17.270999889033703 ], [ -62.662964361915726, 17.272067519200675 ], [ -62.663709725423473, 17.273095602580042 ], [ -62.664537907498413, 17.27380734942966 ], [ -62.665655952759948, 17.274084139171748 ], [ -62.667270907626232, 17.274321386622717 ], [ -62.667974861850382, 17.274558634073742 ], [ -62.668678816074475, 17.275230834135755 ], [ -62.669838270619664, 17.275349457411608 ], [ -62.670459407175883, 17.275863491007328 ], [ -62.671660271004669, 17.276812470918856 ], [ -62.672819724650537, 17.277682365348937 ], [ -62.675345679259635, 17.279975704015555 ], [ -62.676505133804824, 17.281913157566237 ], [ -62.677084861077446, 17.284008747905432 ], [ -62.677995860820261, 17.284483217626416 ], [ -62.678782633611604, 17.284404139339586 ], [ -62.679362360884227, 17.283850590432451 ], [ -62.680149133675513, 17.283652894265686 ], [ -62.681846906209728, 17.284364600645858 ], [ -62.68296495147132, 17.286262468738016 ], [ -62.683544678743885, 17.288674315567278 ], [ -62.683047770038513, 17.290611677387062 ], [ -62.682675088284668, 17.291639657344376 ], [ -62.682757905952542, 17.292549018522436 ], [ -62.68308917842279, 17.293576987687857 ], [ -62.682757905952542, 17.294723561243416 ], [ -62.682592269717418, 17.296146884970824 ], [ -62.683627497311136, 17.297135297456066 ], [ -62.684753306419907, 17.298341153421518 ], [ -62.684623902970714, 17.299453103078292 ], [ -62.683847483174759, 17.300565046439772 ], [ -62.684170990898451, 17.301615209973988 ], [ -62.684947411593726, 17.301862305900727 ], [ -62.686759058983341, 17.30217117535949 ], [ -62.689023618445219, 17.303159555469165 ], [ -62.690576459835711, 17.304765661905833 ], [ -62.691223476182415, 17.306804161482944 ], [ -62.691546984805484, 17.309151495445235 ], [ -62.691158774457847, 17.311004633956713 ], [ -62.691352879631665, 17.312857752683215 ], [ -62.693552737368918, 17.31557562711356 ], [ -62.696658419250582, 17.319034681405469 ], [ -62.699634697683109, 17.323049574278457 ], [ -62.702093362318749, 17.328237920543643 ], [ -62.703387395911534, 17.332499666526417 ], [ -62.705004938127331, 17.335526064176577 ], [ -62.709339951877212, 17.340714057907519 ], [ -62.716586542334994, 17.347569396510494 ], [ -62.721050959534125, 17.353436374788942 ], [ -62.721762678504774, 17.35603013648165 ], [ -62.723444922445196, 17.357265248292606 ], [ -62.724221343140414, 17.358129821434147 ], [ -62.724544851763483, 17.35899439097841 ], [ -62.725644780182392, 17.359982465318581 ], [ -62.726227095703848, 17.360908779616523 ], [ -62.726485902602292, 17.362205612798846 ], [ -62.727650533645146, 17.363378929494047 ], [ -62.729203374136375, 17.364799250385147 ], [ -62.731273828424378, 17.365910798044922 ], [ -62.732503160292595, 17.366775330716962 ], [ -62.733279580987812, 17.368442632421591 ], [ -62.733732493060074, 17.369430655500423 ], [ -62.73554414044969, 17.370974430825356 ], [ -62.737096980940862, 17.371468436519194 ], [ -62.738585120606785, 17.372147691762621 ], [ -62.73936154040274, 17.373382694755605 ], [ -62.739426242127308, 17.374432441004387 ], [ -62.739555645576559, 17.375543930208266 ], [ -62.740655574894845, 17.376284919413536 ], [ -62.742273117110642, 17.37665541311685 ], [ -62.743631853327315, 17.376840659968536 ], [ -62.7449258869201, 17.377705140479918 ], [ -62.746025816238387, 17.379125350754407 ], [ -62.747384551555797, 17.379681081416834 ], [ -62.748937392046969, 17.379866325570504 ], [ -62.750749040335904, 17.380669044241074 ], [ -62.752884196348532, 17.381780495673411 ], [ -62.754372335115136, 17.383015433915205 ], [ -62.755731070432489, 17.383571153785795 ], [ -62.757672121271355, 17.384188617510745 ], [ -62.759548471284859, 17.385176556053295 ], [ -62.761489522123725, 17.386411470912719 ], [ -62.763818783310171, 17.388202084059003 ], [ -62.764724606555319, 17.389251744872183 ], [ -62.766924464292572, 17.391165817848275 ], [ -62.769059621204519, 17.392647666756488 ], [ -62.771130075492522, 17.394006017164031 ], [ -62.772230003911488, 17.39536435857832 ], [ -62.773071126331388, 17.396537463033553 ], [ -62.774041651301104, 17.397401850914719 ], [ -62.774688668547185, 17.398204493142885 ], [ -62.775594492691653, 17.399624543338064 ], [ -62.776565017661369, 17.400982842484268 ], [ -62.77772964870428, 17.401908949938161 ], [ -62.779023682297066, 17.402835051996078 ], [ -62.78018831333992, 17.403390711612076 ], [ -62.781352943483512, 17.403267231997233 ], [ -62.783035188323254, 17.403328972254315 ], [ -62.78413511674222, 17.404131588402151 ], [ -62.785623255508767, 17.404810722237073 ], [ -62.787370202073134, 17.405304636200071 ], [ -62.788793639115113, 17.405798549263693 ], [ -62.789893568433399, 17.406477676803377 ], [ -62.791187602026184, 17.406848109352836 ], [ -62.792093426170652, 17.407403756378301 ], [ -62.793258056314187, 17.408515045033369 ], [ -62.795005001979234, 17.408761997967872 ], [ -62.796493141645158, 17.40870025950943 ], [ -62.797916578687136, 17.408391569015748 ], [ -62.798887104556172, 17.407712448670623 ], [ -62.799987032975139, 17.407156802544478 ], [ -62.800957558844232, 17.407033324728218 ], [ -62.802316294161585, 17.407588971753682 ], [ -62.80373973210294, 17.409564589834019 ], [ -62.804386748449645, 17.411231501232862 ], [ -62.805163169144919, 17.412466240724484 ], [ -62.806392501013079, 17.413577498802567 ], [ -62.807298325157547, 17.41462701482493 ], [ -62.808204149302014, 17.416108673076849 ], [ -62.809239375996356, 17.416972968327855 ] ] ] ] } }
]
}
